STARLINK-1280
1 45388U 20019AE  26061.25002314 -.00002848  00000+0 -23437-4 0  9998
2 45388  53.0436 159.0023 0001354 124.2197 275.7790 15.64530711  5937
